FENGYUN 1C DEB          
1 31013U 99025BDF 17345.85926609  .00002296  00000-0  50361-3 0  9995
2 31013  98.9808 215.5759 0052739 165.3010 194.9734 14.57872596565791
